[
    {
        "Altitude(m)": 611967.152989977,
        "Argument of Periapsis(deg)": 0.0,
        "Eccentricity": 0.0,
        "Inclination(deg)": 60.0,
        "Latitude(deg)": 59.140082938872645,
        "Longitude(deg)": -128.90780607961904,
        "Mean Anomaly(deg)": 98.18179999999998,
        "RAAN(deg)": 225.0,
        "Satellite Name": "Test1 996",
        "Satellite Number": 996,
        "Semi-Major Axis(m)": 6980739.136638005,
        "Time(s)": 0
    },
    {
        "Altitude(m)": 611934.352253912,
        "Argument of Periapsis(deg)": 0.00010418945913296404,
        "Eccentricity": 0.0,
        "Inclination(deg)": 60.0,
        "Latitude(deg)": 58.98644353525633,
        "Longitude(deg)": -127.78456375580446,
        "Mean Anomaly(deg)": 98.80190614546179,
        "RAAN(deg)": 224.99957995086024,
        "Satellite Name": "Test1 996",
        "Satellite Number": 996,
        "Semi-Major Axis(m)": 6980739.136638005,
        "Time(s)": 10
    },
    {
        "Altitude(m)": 611899.2468868684,
        "Argument of Periapsis(deg)": 0.0002083789182659281,
        "Eccentricity": 0.0,
        "Inclination(deg)": 60.0,
        "Latitude(deg)": 58.82242606673145,
        "Longitude(deg)": -126.67198679463479,
        "Mean Anomaly(deg)": 99.42201229092362,
        "RAAN(deg)": 224.9991599017205,
        "Satellite Name": "Test1 996",
        "Satellite Number": 996,
        "Semi-Major Axis(m)": 6980739.136638005,
        "Time(s)": 20
    },
    {
        "Altitude(m)": 611861.8571234775,
        "Argument of Periapsis(deg)": 0.00031256837739889213,
        "Eccentricity": 0.0,
        "Inclination(deg)": 60.0,
        "Latitude(deg)": 58.648193583147496,
        "Longitude(deg)": -125.57058698211534,
        "Mean Anomaly(deg)": 100.04211843638548,
        "RAAN(deg)": 224.99873985258074,
        "Satellite Name": "Test1 996",
        "Satellite Number": 996,
        "Semi-Major Axis(m)": 6980739.136638005,
        "Time(s)": 30
    },
    {
        "Altitude(m)": 611822.2045242053,
        "Argument of Periapsis(deg)": 0.0004167578365318562,
        "Eccentricity": 0.0,
        "Inclination(deg)": 60.0,
        "Latitude(deg)": 58.46391558318853,
        "Longitude(deg)": -124.48083535575884,
        "Mean Anomaly(deg)": 100.6622245818473,
        "RAAN(deg)": 224.99831980344103,
        "Satellite Name": "Test1 996",
        "Satellite Number": 996,
        "Semi-Major Axis(m)": 6980739.136638005,
        "Time(s)": 40
    },
    {
        "Altitude(m)": 611780.3119651347,
        "Argument of Periapsis(deg)": 0.0005209472956648203,
        "Eccentricity": 0.0,
        "Inclination(deg)": 60.0,
        "Latitude(deg)": 58.26976729786087,
        "Longitude(deg)": -123.40316298094044,
        "Mean Anomaly(deg)": 101.28233072730914,
        "RAAN(deg)": 224.99789975430127,
        "Satellite Name": "Test1 996",
        "Satellite Number": 996,
        "Semi-Major Axis(m)": 6980739.136638005,
        "Time(s)": 50
    },
    {
        "Altitude(m)": 611736.2036271632,
        "Argument of Periapsis(deg)": 0.0006251367547977843,
        "Eccentricity": 0.0,
        "Inclination(deg)": 60.0,
        "Latitude(deg)": 58.065928980436595,
        "Longitude(deg)": -122.33796050437806,
        "Mean Anomaly(deg)": 101.90243687277098,
        "RAAN(deg)": 224.99747970516154,
        "Satellite Name": "Test1 996",
        "Satellite Number": 996,
        "Semi-Major Axis(m)": 6980739.136638005,
        "Time(s)": 60
    },
    {
        "Altitude(m)": 611689.9049845509,
        "Argument of Periapsis(deg)": 0.0007293262139307483,
        "Eccentricity": 0.0,
        "Inclination(deg)": 60.0,
        "Latitude(deg)": 57.85258520823773,
        "Longitude(deg)": -121.28557797737585,
        "Mean Anomaly(deg)": 102.52254301823284,
        "RAAN(deg)": 224.99705965602178,
        "Satellite Name": "Test1 996",
        "Satellite Number": 996,
        "Semi-Major Axis(m)": 6980739.136638005,
        "Time(s)": 70
    },
    {
        "Altitude(m)": 611641.4427928568,
        "Argument of Periapsis(deg)": 0.0008335156730637124,
        "Eccentricity": 0.0,
        "Inclination(deg)": 60.0,
        "Latitude(deg)": 57.629924201104274,
        "Longitude(deg)": -120.24632643931473,
        "Mean Anomaly(deg)": 103.14264916369467,
        "RAAN(deg)": 224.99663960688207,
        "Satellite Name": "Test1 996",
        "Satellite Number": 996,
        "Semi-Major Axis(m)": 6980739.136638005,
        "Time(s)": 80
    },
    {
        "Altitude(m)": 611590.8450762713,
        "Argument of Periapsis(deg)": 0.0009377051321966765,
        "Eccentricity": 0.0,
        "Inclination(deg)": 60.0,
        "Latitude(deg)": 57.39813716081358,
        "Longitude(deg)": -119.22047821172221,
        "Mean Anomaly(deg)": 103.76275530915647,
        "RAAN(deg)": 224.9962195577423,
        "Satellite Name": "Test1 996",
        "Satellite Number": 996,
        "Semi-Major Axis(m)": 6980739.136638005,
        "Time(s)": 90
    },
    {
        "Altitude(m)": 611538.1411143222,
        "Argument of Periapsis(deg)": 0.0010418945913296407,
        "Eccentricity": 0.0,
        "Inclination(deg)": 60.0,
        "Latitude(deg)": 57.15741763513932,
        "Longitude(deg)": -118.20826739090177,
        "Mean Anomaly(deg)": 104.3828614546183,
        "RAAN(deg)": 224.99579950860257,
        "Satellite Name": "Test1 996",
        "Satellite Number": 996,
        "Semi-Major Axis(m)": 6980739.136638005,
        "Time(s)": 100
    },
    {
        "Altitude(m)": 611483.3614279937,
        "Argument of Periapsis(deg)": 0.0011460840504626045,
        "Eccentricity": 0.0,
        "Inclination(deg)": 60.0,
        "Latitude(deg)": 56.90796090965154,
        "Longitude(deg)": -117.20989202669068,
        "Mean Anomaly(deg)": 105.0029676000801,
        "RAAN(deg)": 224.9953794594628,
        "Satellite Name": "Test1 996",
        "Satellite Number": 996,
        "Semi-Major Axis(m)": 6980739.136638005,
        "Time(s)": 110
    },
    {
        "Altitude(m)": 611426.5377652488,
        "Argument of Periapsis(deg)": 0.0012502735095955685,
        "Eccentricity": 0.0,
        "Inclination(deg)": 60.0,
        "Latitude(deg)": 56.64996342977857,
        "Longitude(deg)": -116.22551493637053,
        "Mean Anomaly(deg)": 105.62307374554193,
        "RAAN(deg)": 224.9949594103231,
        "Satellite Name": "Test1 996",
        "Satellite Number": 996,
        "Semi-Major Axis(m)": 6980739.136638005,
        "Time(s)": 120
    },
    {
        "Altitude(m)": 611367.703085946,
        "Argument of Periapsis(deg)": 0.0013544629687285324,
        "Eccentricity": 0.0,
        "Inclination(deg)": 60.0,
        "Latitude(deg)": 56.38362225510088,
        "Longitude(deg)": -115.25526464187239,
        "Mean Anomaly(deg)": 106.24317989100376,
        "RAAN(deg)": 224.99453936118334,
        "Satellite Name": "Test1 996",
        "Satellite Number": 996,
        "Semi-Major Axis(m)": 6980739.136638005,
        "Time(s)": 130
    },
    {
        "Altitude(m)": 611306.8915461671,
        "Argument of Periapsis(deg)": 0.0014586524278614966,
        "Eccentricity": 0.0,
        "Inclination(deg)": 60.0,
        "Latitude(deg)": 56.10913454732104,
        "Longitude(deg)": -114.29923791928108,
        "Mean Anomaly(deg)": 106.8632860364656,
        "RAAN(deg)": 224.9941193120436,
        "Satellite Name": "Test1 996",
        "Satellite Number": 996,
        "Semi-Major Axis(m)": 6980739.136638005,
        "Time(s)": 140
    },
    {
        "Altitude(m)": 611244.1384820093,
        "Argument of Periapsis(deg)": 0.0015628418869944607,
        "Eccentricity": 0.0,
        "Inclination(deg)": 60.0,
        "Latitude(deg)": 55.82669709285738,
        "Longitude(deg)": -113.35750091220793,
        "Mean Anomaly(deg)": 107.48339218192746,
        "RAAN(deg)": 224.99369926290385,
        "Satellite Name": "Test1 996",
        "Satellite Number": 996,
        "Semi-Major Axis(m)": 6980739.136638005,
        "Time(s)": 150
    },
    {
        "Altitude(m)": 611179.4803927334,
        "Argument of Periapsis(deg)": 0.0016670313461274247,
        "Eccentricity": 0.0,
        "Inclination(deg)": 60.0,
        "Latitude(deg)": 55.5365058605639,
        "Longitude(deg)": -112.43009030061557,
        "Mean Anomaly(deg)": 108.10349832738929,
        "RAAN(deg)": 224.99327921376414,
        "Satellite Name": "Test1 996",
        "Satellite Number": 996,
        "Semi-Major Axis(m)": 6980739.136638005,
        "Time(s)": 160
    },
    {
        "Altitude(m)": 611112.9549234092,
        "Argument of Periapsis(deg)": 0.0017712208052603888,
        "Eccentricity": 0.0,
        "Inclination(deg)": 60.0,
        "Latitude(deg)": 55.238755594670344,
        "Longitude(deg)": -111.51701601826656,
        "Mean Anomaly(deg)": 108.72360447285114,
        "RAAN(deg)": 224.9928591646244,
        "Satellite Name": "Test1 996",
        "Satellite Number": 996,
        "Semi-Major Axis(m)": 6980739.136638005,
        "Time(s)": 170
    },
    {
        "Altitude(m)": 611044.6008469642,
        "Argument of Periapsis(deg)": 0.001875410264393353,
        "Eccentricity": 0.0,
        "Inclination(deg)": 60.0,
        "Latitude(deg)": 54.933639442671684,
        "Longitude(deg)": -110.61826247506411,
        "Mean Anomaly(deg)": 109.34371061831297,
        "RAAN(deg)": 224.99243911548464,
        "Satellite Name": "Test1 996",
        "Satellite Number": 996,
        "Semi-Major Axis(m)": 6980739.136638005,
        "Time(s)": 180
    },
    {
        "Altitude(m)": 610974.4580456936,
        "Argument of Periapsis(deg)": 0.0019795997235263173,
        "Eccentricity": 0.0,
        "Inclination(deg)": 60.0,
        "Latitude(deg)": 54.62134861758306,
        "Longitude(deg)": -109.73378978093967,
        "Mean Anomaly(deg)": 109.96381676377476,
        "RAAN(deg)": 224.99201906634488,
        "Satellite Name": "Test1 996",
        "Satellite Number": 996,
        "Semi-Major Axis(m)": 6980739.136638005,
        "Time(s)": 190
    }
]